[
    {
        "Altitude(m)": 703918.1816659642,
        "Argument of Periapsis(deg)": 0.007973084830638947,
        "Eccentricity": 0.0,
        "Inclination(deg)": 45.0,
        "Latitude(deg)": 27.740597220299378,
        "Longitude(deg)": -42.072347701153085,
        "Mean Anomaly(deg)": -221.0176483467634,
        "RAAN(deg)": 269.99247364097926,
        "Satellite Name": "Constellation 1 1196",
        "Satellite Number": 1196,
        "Semi-Major Axis(m)": 7083131.272910544,
        "Time(s)": 133
    },
    {
        "Altitude(m)": 703912.800691923,
        "Argument of Periapsis(deg)": 0.008033032836884352,
        "Eccentricity": 0.0,
        "Inclination(deg)": 45.0,
        "Latitude(deg)": 27.703818205521898,
        "Longitude(deg)": -42.021823012965044,
        "Mean Anomaly(deg)": -220.95694720651352,
        "RAAN(deg)": 269.99241705181373,
        "Satellite Name": "Constellation 1 1196",
        "Satellite Number": 1196,
        "Semi-Major Axis(m)": 7083131.272910544,
        "Time(s)": 134
    },
    {
        "Altitude(m)": 703907.4265164989,
        "Argument of Periapsis(deg)": 0.008092980843129758,
        "Eccentricity": 0.0,
        "Inclination(deg)": 45.0,
        "Latitude(deg)": 27.667017464619374,
        "Longitude(deg)": -41.97133494283123,
        "Mean Anomaly(deg)": -220.89624606626361,
        "RAAN(deg)": 269.9923604626481,
        "Satellite Name": "Constellation 1 1196",
        "Satellite Number": 1196,
        "Semi-Major Axis(m)": 7083131.272910544,
        "Time(s)": 135
    },
    {
        "Altitude(m)": 703902.059178307,
        "Argument of Periapsis(deg)": 0.008152928849375162,
        "Eccentricity": 0.0,
        "Inclination(deg)": 45.0,
        "Latitude(deg)": 27.630195045418795,
        "Longitude(deg)": -41.92088343062836,
        "Mean Anomaly(deg)": -220.83554492601368,
        "RAAN(deg)": 269.9923038734825,
        "Satellite Name": "Constellation 1 1196",
        "Satellite Number": 1196,
        "Semi-Major Axis(m)": 7083131.272910544,
        "Time(s)": 136
    },
    {
        "Altitude(m)": 703896.6987159611,
        "Argument of Periapsis(deg)": 0.008212876855620568,
        "Eccentricity": 0.0,
        "Inclination(deg)": 45.0,
        "Latitude(deg)": 27.593350995678023,
        "Longitude(deg)": -41.870468416211914,
        "Mean Anomaly(deg)": -220.77484378576384,
        "RAAN(deg)": 269.992247284317,
        "Satellite Name": "Constellation 1 1196",
        "Satellite Number": 1196,
        "Semi-Major Axis(m)": 7083131.272910544,
        "Time(s)": 137
    },
    {
        "Altitude(m)": 703891.3451680405,
        "Argument of Periapsis(deg)": 0.008272824861865974,
        "Eccentricity": 0.0,
        "Inclination(deg)": 45.0,
        "Latitude(deg)": 27.556485363085596,
        "Longitude(deg)": -41.820089839416525,
        "Mean Anomaly(deg)": -220.714142645514,
        "RAAN(deg)": 269.9921906951514,
        "Satellite Name": "Constellation 1 1196",
        "Satellite Number": 1196,
        "Semi-Major Axis(m)": 7083131.272910544,
        "Time(s)": 138
    },
    {
        "Altitude(m)": 703885.9985731179,
        "Argument of Periapsis(deg)": 0.00833277286811138,
        "Eccentricity": 0.0,
        "Inclination(deg)": 45.0,
        "Latitude(deg)": 27.519598195260887,
        "Longitude(deg)": -41.769747640056266,
        "Mean Anomaly(deg)": -220.653441505264,
        "RAAN(deg)": 269.9921341059858,
        "Satellite Name": "Constellation 1 1196",
        "Satellite Number": 1196,
        "Semi-Major Axis(m)": 7083131.272910544,
        "Time(s)": 139
    },
    {
        "Altitude(m)": 703880.6589697447,
        "Argument of Periapsis(deg)": 0.008392720874356788,
        "Eccentricity": 0.0,
        "Inclination(deg)": 45.0,
        "Latitude(deg)": 27.482689539754425,
        "Longitude(deg)": -41.7194417579257,
        "Mean Anomaly(deg)": -220.59274036501415,
        "RAAN(deg)": 269.99207751682025,
        "Satellite Name": "Constellation 1 1196",
        "Satellite Number": 1196,
        "Semi-Major Axis(m)": 7083131.272910544,
        "Time(s)": 140
    },
    {
        "Altitude(m)": 703875.3263964526,
        "Argument of Periapsis(deg)": 0.008452668880602192,
        "Eccentricity": 0.0,
        "Inclination(deg)": 45.0,
        "Latitude(deg)": 27.445759444047294,
        "Longitude(deg)": -41.66917230089644,
        "Mean Anomaly(deg)": -220.53203922476422,
        "RAAN(deg)": 269.9920209276547,
        "Satellite Name": "Constellation 1 1196",
        "Satellite Number": 1196,
        "Semi-Major Axis(m)": 7083131.272910544,
        "Time(s)": 141
    },
    {
        "Altitude(m)": 703870.0008917613,
        "Argument of Periapsis(deg)": 0.008512616886847598,
        "Eccentricity": 0.0,
        "Inclination(deg)": 45.0,
        "Latitude(deg)": 27.40880795555251,
        "Longitude(deg)": -41.61893887253072,
        "Mean Anomaly(deg)": -220.4713380845143,
        "RAAN(deg)": 269.99196433848914,
        "Satellite Name": "Constellation 1 1196",
        "Satellite Number": 1196,
        "Semi-Major Axis(m)": 7083131.272910544,
        "Time(s)": 142
    },
    {
        "Altitude(m)": 703864.6824941622,
        "Argument of Periapsis(deg)": 0.008572564893093004,
        "Eccentricity": 0.0,
        "Inclination(deg)": 45.0,
        "Latitude(deg)": 27.37183512161347,
        "Longitude(deg)": -41.56874158066255,
        "Mean Anomaly(deg)": -220.4106369442644,
        "RAAN(deg)": 269.99190774932356,
        "Satellite Name": "Constellation 1 1196",
        "Satellite Number": 1196,
        "Semi-Major Axis(m)": 7083131.272910544,
        "Time(s)": 143
    },
    {
        "Altitude(m)": 703859.3712421416,
        "Argument of Periapsis(deg)": 0.008632512899338408,
        "Eccentricity": 0.0,
        "Inclination(deg)": 45.0,
        "Latitude(deg)": 27.3348409895053,
        "Longitude(deg)": -41.5185803650116,
        "Mean Anomaly(deg)": -220.3499358040145,
        "RAAN(deg)": 269.991851160158,
        "Satellite Name": "Constellation 1 1196",
        "Satellite Number": 1196,
        "Semi-Major Axis(m)": 7083131.272910544,
        "Time(s)": 144
    },
    {
        "Altitude(m)": 703854.0671741493,
        "Argument of Periapsis(deg)": 0.008692460905583814,
        "Eccentricity": 0.0,
        "Inclination(deg)": 45.0,
        "Latitude(deg)": 27.29782560643411,
        "Longitude(deg)": -41.46845516527923,
        "Mean Anomaly(deg)": -220.2892346637646,
        "RAAN(deg)": 269.9917945709924,
        "Satellite Name": "Constellation 1 1196",
        "Satellite Number": 1196,
        "Semi-Major Axis(m)": 7083131.272910544,
        "Time(s)": 145
    },
    {
        "Altitude(m)": 703848.7703286362,
        "Argument of Periapsis(deg)": 0.00875240891182922,
        "Eccentricity": 0.0,
        "Inclination(deg)": 45.0,
        "Latitude(deg)": 27.260789019537665,
        "Longitude(deg)": -41.41836592115007,
        "Mean Anomaly(deg)": -220.22853352351473,
        "RAAN(deg)": 269.9917379818269,
        "Satellite Name": "Constellation 1 1196",
        "Satellite Number": 1196,
        "Semi-Major Axis(m)": 7083131.272910544,
        "Time(s)": 146
    },
    {
        "Altitude(m)": 703843.4807440192,
        "Argument of Periapsis(deg)": 0.008812356918074627,
        "Eccentricity": 0.0,
        "Inclination(deg)": 45.0,
        "Latitude(deg)": 27.22373127588517,
        "Longitude(deg)": -41.36831257229203,
        "Mean Anomaly(deg)": -220.1678323832648,
        "RAAN(deg)": 269.9916813926613,
        "Satellite Name": "Constellation 1 1196",
        "Satellite Number": 1196,
        "Semi-Major Axis(m)": 7083131.272910544,
        "Time(s)": 147
    },
    {
        "Altitude(m)": 703838.1984586964,
        "Argument of Periapsis(deg)": 0.008872304924320031,
        "Eccentricity": 0.0,
        "Inclination(deg)": 45.0,
        "Latitude(deg)": 27.186652422477227,
        "Longitude(deg)": -41.318295226453394,
        "Mean Anomaly(deg)": -220.10713124301498,
        "RAAN(deg)": 269.9916248034957,
        "Satellite Name": "Constellation 1 1196",
        "Satellite Number": 1196,
        "Semi-Major Axis(m)": 7083131.272910544,
        "Time(s)": 148
    },
    {
        "Altitude(m)": 703832.9235110591,
        "Argument of Periapsis(deg)": 0.008932252930565437,
        "Eccentricity": 0.0,
        "Inclination(deg)": 45.0,
        "Latitude(deg)": 27.149552506246515,
        "Longitude(deg)": -41.26831348707593,
        "Mean Anomaly(deg)": -220.04643010276502,
        "RAAN(deg)": 269.99156821433013,
        "Satellite Name": "Constellation 1 1196",
        "Satellite Number": 1196,
        "Semi-Major Axis(m)": 7083131.272910544,
        "Time(s)": 149
    },
    {
        "Altitude(m)": 703827.6559394704,
        "Argument of Periapsis(deg)": 0.008992200936810843,
        "Eccentricity": 0.0,
        "Inclination(deg)": 45.0,
        "Latitude(deg)": 27.112431574057172,
        "Longitude(deg)": -41.21836746187706,
        "Mean Anomaly(deg)": -219.98572896251514,
        "RAAN(deg)": 269.99151162516455,
        "Satellite Name": "Constellation 1 1196",
        "Satellite Number": 1196,
        "Semi-Major Axis(m)": 7083131.272910544,
        "Time(s)": 150
    },
    {
        "Altitude(m)": 703822.395782265,
        "Argument of Periapsis(deg)": 0.009052148943056249,
        "Eccentricity": 0.0,
        "Inclination(deg)": 45.0,
        "Latitude(deg)": 27.075289672705008,
        "Longitude(deg)": -41.168457090461864,
        "Mean Anomaly(deg)": -219.9250278222652,
        "RAAN(deg)": 269.991455035999,
        "Satellite Name": "Constellation 1 1196",
        "Satellite Number": 1196,
        "Semi-Major Axis(m)": 7083131.272910544,
        "Time(s)": 151
    }
]